[{"icaoId":"KBWI","receiptTime":"2025-09-21T00:14:07.952Z","obsTime":1758413460,"reportTime":"2025-09-21T00:11:00.000Z","temp":21.1,"dewp":17.2,"wdir":100,"wspd":7,"visib":"10+","altim":1023.1,"qcField":4,"metarType":"SPECI","rawOb":"SPECI KBWI 210011Z 10007KT 10SM SCT023 BKN031 BKN070 21/17 A3021 RMK AO2 T02110172","lat":39.1733,"lon":-76.684,"elev":42,"name":"Baltimore-Washington Intl, MD, US","cover":"BKN","clouds":[{"cover":"SCT","base":2300},{"cover":"BKN","base":3100},{"cover":"BKN","base":7000}],"fltCat":"VFR"}]