[{"icaoId":"KDCA","receiptTime":"2025-09-20T23:56:48.494Z","obsTime":1758412320,"reportTime":"2025-09-21T00:00:00.000Z","temp":21.7,"dewp":17.8,"wdir":150,"wspd":5,"visib":"10+","altim":1022.8,"slp":1022.5,"qcField":4,"presTend":0.8,"maxT":25,"minT":21.7,"metarType":"METAR","rawOb":"METAR KDCA 202352Z 15005KT 10SM FEW024 SCT095 BKN250 22/18 A3020 RMK AO2 SLP225 T02170178 10250 20217 53008","lat":38.8472,"lon":-77.0345,"elev":4,"name":"Washington/Reagan-National Arpt, VA, US","cover":"BKN","clouds":[{"cover":"FEW","base":2400},{"cover":"SCT","base":9500},{"cover":"BKN","base":25000}],"fltCat":"VFR"}]