[{"icaoId":"KIAD","receiptTime":"2025-09-21T00:12:06.073Z","obsTime":1758413280,"reportTime":"2025-09-21T00:08:00.000Z","temp":21.1,"dewp":17.2,"wdir":110,"wspd":5,"visib":"10+","altim":1022.8,"qcField":4,"metarType":"SPECI","rawOb":"SPECI KIAD 210008Z 11005KT 10SM SCT026 SCT250 21/17 A3020 RMK AO2 T02110172","lat":38.9348,"lon":-77.4473,"elev":90,"name":"Washington/Dulles Intl, VA, US","cover":"SCT","clouds":[{"cover":"SCT","base":2600},{"cover":"SCT","base":25000}],"fltCat":"VFR"}]