[{"icaoId":"KJFK","receiptTime":"2025-09-20T23:58:03.501Z","obsTime":1758412260,"reportTime":"2025-09-21T00:00:00.000Z","temp":18.3,"dewp":11.1,"wdir":110,"wspd":6,"visib":"10+","altim":1025.5,"slp":1025.2,"qcField":12,"presTend":0.6,"maxT":22.8,"minT":17.8,"metarType":"METAR","rawOb":"METAR KJFK 202351Z 11006KT 10SM SCT250 18/11 A3028 RMK AO2 SLP252 T01830111 10228 20178 53006 $","lat":40.6392,"lon":-73.7639,"elev":3,"name":"New York/JF Kennedy Intl, NY, US","cover":"SCT","clouds":[{"cover":"SCT","base":25000}],"fltCat":"VFR"}]